ONEWEB-0365             
1 49291U 21090N   26201.77354164  .00000007  00000+0 -14114-4 0  9997
2 49291  87.9192 298.2812 0002091 101.1021 259.0347 13.19726260230858
ONEWEB-0366             
1 49292U 21090P   26201.69937092 -.00000088  00000+0 -27151-3 0  9990
2 49292  87.8965 283.0297 0002011  98.3257 261.8101 13.14502195231961
ONEWEB-0367             
1 49293U 21090Q   26201.87491898 -.00000008  00000+0 -52668-4 0  9994
2 49293  87.9179 267.7283 0002207 100.4080 259.7302 13.20773425234279
ONEWEB-0368             
1 49294U 21090R   26201.92460257  .00000078  00000+0  16034-3 0  9997
2 49294  87.9169 267.7247 0001772 118.2913 241.8399 13.20772143235430
ONEWEB-0369             
1 49295U 21090S   26201.76880271  .00000034  00000+0  53667-4 0  9998
2 49295  87.9183 298.2871 0002009 103.0446 257.0911 13.19726458230841
ONEWEB-0370             
1 49296U 21090T   26201.88418963  .00000085  00000+0  17666-3 0  9991
2 49296  87.9179 267.7253 0002248  92.1081 268.0310 13.20772714234319
ONEWEB-0371             
1 49297U 21090U   26201.77670376  .00000029  00000+0  40211-4 0  9999
2 49297  87.9191 298.2803 0002088 100.6289 259.5079 13.19725314230888
ONEWEB-0372             
1 49298U 21090V   26201.72243670 -.00000104  00000+0 -28661-3 0  9998
2 49298  87.9182 267.7597 0002071  98.8531 261.2837 13.20769759234261
ONEWEB-0373             
1 49299U 21090W   26201.74781834  .00000065  00000+0  12711-3 0  9993
2 49299  87.9174 267.7537 0002044  94.9745 265.1622 13.20770060235455
ONEWEB-0374             
1 49300U 21090X   26201.76278879  .00000143  00000+0  35072-3 0  9990
2 49300  87.8967 283.0090 0001471  92.5049 267.6249 13.14503131231977
ONEWEB-0375             
1 49301U 21090Y   26201.88754912  .00000081  00000+0  16666-3 0  9990
2 49301  87.9179 267.7183 0001559  87.3268 272.8044 13.20770804234972
ONEWEB-0376             
1 49302U 21090Z   26201.77511563  .00000037  00000+0  61319-4 0  9999
2 49302  87.9191 298.2804 0002111 104.9852 255.1515 13.19724107230882
ONEWEB-0377             
1 49303U 21090AA  26201.72269851 -.00000018  00000+0 -75610-4 0  9995
2 49303  87.9180 267.7535 0001734  95.4241 264.7090 13.20769747234945
ONEWEB-0378             
1 49304U 21090AB  26201.74292213  .00000053  00000+0  99441-4 0  9991
2 49304  87.9174 267.7528 0001911  98.2086 261.9264 13.20772181234214
ONEWEB-0379             
1 49305U 21090AC  26201.52968614  .00000283  00000+0  72823-3 0  9992
2 49305  87.8966 283.0654 0001892  99.9354 260.1989 13.14502956231944
ONEWEB-0380             
1 49306U 21090AD  26201.77196215  .00000055  00000+0  10401-3 0  9991
2 49306  87.9183 298.2841 0001948  95.0496 265.0860 13.19726558230851
ONEWEB-0381             
1 49307U 21090AE  26201.71919708  .00000001  00000+0 -30529-4 0  9992
2 49307  87.9181 267.7589 0001785  94.8671 265.2666 13.20769762234251
ONEWEB-0382             
1 49308U 21090AF  26201.25120415 -.00000061  00000+0 -18246-3 0  9999
2 49308  87.9181 267.8460 0001732  98.6034 261.5296 13.20771978234180
ONEWEB-0383             
1 49309U 21090AG  26201.52334162  .00000258  00000+0  66112-3 0  9997
2 49309  87.8966 283.0590 0001878 102.3647 257.7693 13.14503146231974
ONEWEB-0384             
1 49310U 21090AH  26201.69332048  .00000042  00000+0  70244-4 0  9991
2 49310  87.9179 267.8016 0001571 102.4799 257.6511 13.20814758234258
ONEWEB-0385             
1 49311U 21090AJ  26201.92627461  .00000010  00000+0 -79375-5 0  9995
2 49311  87.9178 267.7169 0001857  96.9112 263.2233 13.20771296234252
ONEWEB-0386             
1 49312U 21090AK  26201.71582845  .00000041  00000+0  69682-4 0  9991
2 49312  87.9190 267.7519 0001698  94.8421 265.2907 13.20769908234245
ONEWEB-0387             
1 49313U 21090AL  26201.47341623  .00000071  00000+0  14269-3 0  9995
2 49313  87.9169 267.8171 0001891  88.2672 271.8678 13.20770821234218
ONEWEB-0388             
1 49314U 21090AM  26201.76722587  .00000043  00000+0  75035-4 0  9998
2 49314  87.9184 298.2831 0001889 100.3002 259.8344 13.19724118230844
ONEWEB-0389             
1 50469U 21132A   26201.91436671 -.00000028  00000+0 -10418-3 0  9999
2 50469  87.9153 359.1584 0001633  84.9834 275.1484 13.17647931222529
ONEWEB-0390             
1 50470U 21132B   26201.91605428  .00000063  00000+0  12895-3 0  9997
2 50470  87.9152 359.1596 0002077  90.2247 269.9122 13.17648471222524
ONEWEB-0391             
1 50471U 21132C   26201.91774147 -.00000052  00000+0 -16751-3 0  9998
2 50471  87.9155 359.1691 0001806  68.3091 291.8233 13.17647665222527
ONEWEB-0392             
1 50472U 21132D   26201.87218250  .00000012  00000+0 -26924-5 0  9992
2 50472  87.9161 359.1492 0001663  83.1861 276.9460 13.17647356222551
ONEWEB-0393             
1 50473U 21132E   26201.92366642  .00000008  00000+0 -12818-4 0  9999
2 50473  87.9153 359.1531 0001748  90.0770 270.0562 13.17647507222553
ONEWEB-0394             
1 50474U 21132F   26201.78728025  .00000030  00000+0  42746-4 0  9998
2 50474  87.9200 328.7623 0001755  99.8968 260.2362 13.18685644226025
