OBJECT_NAME,OBJECT_ID,EPOCH,MEAN_MOTION,ECCENTRICITY,INCLINATION,RA_OF_ASC_NODE,ARG_OF_PERICENTER,MEAN_ANOMALY,EPHEMERIS_TYPE,CLASSIFICATION_TYPE,NORAD_CAT_ID,ELEMENT_SET_NO,REV_AT_EPOCH,BSTAR,MEAN_MOTION_DOT,MEAN_MOTION_DDOT
ONEWEB-0365,2021-090N,2026-07-20T18:33:53.997696,13.19726260,.00020915,87.9192,298.2812,101.1021,259.0347,0,U,49291,999,23085,-.14113901E-4,.7E-7,0
ONEWEB-0366,2021-090P,2026-07-20T16:47:05.647488,13.14502195,.0002011,87.8965,283.0297,98.3257,261.8101,0,U,49292,999,23196,-.27151183E-3,-.88E-6,0
ONEWEB-0367,2021-090Q,2026-07-20T20:59:52.999872,13.20773425,.0002207,87.9179,267.7283,100.4080,259.7302,0,U,49293,999,23427,-.52667833E-4,-.8E-7,0
ONEWEB-0368,2021-090R,2026-07-20T22:11:25.662048,13.20772143,.00017721,87.9169,267.7247,118.2913,241.8399,0,U,49294,999,23543,.1603404E-3,.78E-6,0
ONEWEB-0369,2021-090S,2026-07-20T18:27:04.554144,13.19726458,.00020099,87.9183,298.2871,103.0446,257.0911,0,U,49295,999,23084,.53666621E-4,.34E-6,0
ONEWEB-0370,2021-090T,2026-07-20T21:13:13.984032,13.20772714,.00022486,87.9179,267.7253,92.1081,268.0310,0,U,49296,999,23431,.17666132E-3,.85E-6,0
ONEWEB-0371,2021-090U,2026-07-20T18:38:27.204864,13.19725314,.00020882,87.9191,298.2803,100.6289,259.5079,0,U,49297,999,23088,.40210688E-4,.29E-6,0
ONEWEB-0372,2021-090V,2026-07-20T17:20:18.530880,13.20769759,.00020717,87.9182,267.7597,98.8531,261.2837,0,U,49298,999,23426,-.286605E-3,-.104E-5,0
ONEWEB-0373,2021-090W,2026-07-20T17:56:51.504576,13.20770060,.00020441,87.9174,267.7537,94.9745,265.1622,0,U,49299,999,23545,.1271105E-3,.65E-6,0
ONEWEB-0374,2021-090X,2026-07-20T18:18:24.951456,13.14503131,.00014712,87.8967,283.0090,92.5049,267.6249,0,U,49300,999,23197,.3507221E-3,.143E-5,0
ONEWEB-0375,2021-090Y,2026-07-20T21:18:04.243968,13.20770804,.00015599,87.9179,267.7183,87.3268,272.8044,0,U,49301,999,23497,.16665965E-3,.81E-6,0
ONEWEB-0376,2021-090Z,2026-07-20T18:36:09.990432,13.19724107,.00021117,87.9191,298.2804,104.9852,255.1515,0,U,49302,999,23088,.61319124E-4,.37E-6,0
ONEWEB-0377,2021-090AA,2026-07-20T17:20:41.151264,13.20769747,.00017349,87.9180,267.7535,95.4241,264.7090,0,U,49303,999,23494,-.75610292E-4,-.18E-6,0
ONEWEB-0378,2021-090AB,2026-07-20T17:49:48.472032,13.20772181,.00019114,87.9174,267.7528,98.2086,261.9264,0,U,49304,999,23421,.99440754E-4,.53E-6,0
ONEWEB-0379,2021-090AC,2026-07-20T12:42:44.882496,13.14502956,.0001892,87.8966,283.0654,99.9354,260.1989,0,U,49305,999,23194,.72823222E-3,.283E-5,0
ONEWEB-0380,2021-090AD,2026-07-20T18:31:37.529760,13.19726558,.00019481,87.9183,298.2841,95.0496,265.0860,0,U,49306,999,23085,.10401397E-3,.55E-6,0
ONEWEB-0381,2021-090AE,2026-07-20T17:15:38.627712,13.20769762,.00017854,87.9181,267.7589,94.8671,265.2666,0,U,49307,999,23425,-.30529117E-4,.1E-7,0
ONEWEB-0382,2021-090AF,2026-07-20T06:01:44.038560,13.20771978,.00017327,87.9181,267.8460,98.6034,261.5296,0,U,49308,999,23418,-.18246045E-3,-.61E-6,0
ONEWEB-0383,2021-090AG,2026-07-20T12:33:36.715968,13.14503146,.00018782,87.8966,283.0590,102.3647,257.7693,0,U,49309,999,23197,.66112073E-3,.258E-5,0
ONEWEB-0384,2021-090AH,2026-07-20T16:38:22.889472,13.20814758,.00015712,87.9179,267.8016,102.4799,257.6511,0,U,49310,999,23425,.70243792E-4,.42E-6,0
ONEWEB-0385,2021-090AJ,2026-07-20T22:13:50.126304,13.20771296,.00018576,87.9178,267.7169,96.9112,263.2233,0,U,49311,999,23425,-.7937472E-5,.1E-6,0
ONEWEB-0386,2021-090AK,2026-07-20T17:10:47.578080,13.20769908,.00016984,87.9190,267.7519,94.8421,265.2907,0,U,49312,999,23424,.69682476E-4,.41E-6,0
ONEWEB-0387,2021-090AL,2026-07-20T11:21:43.162272,13.20770821,.0001891,87.9169,267.8171,88.2672,271.8678,0,U,49313,999,23421,.14268574E-3,.71E-6,0
ONEWEB-0388,2021-090AM,2026-07-20T18:24:48.315168,13.19724118,.00018896,87.9184,298.2831,100.3002,259.8344,0,U,49314,999,23084,.75034893E-4,.43E-6,0
ONEWEB-0389,2021-132A,2026-07-20T21:56:41.283744,13.17647931,.00016331,87.9153,359.1584,84.9834,275.1484,0,U,50469,999,22252,-.10417551E-3,-.28E-6,0
ONEWEB-0390,2021-132B,2026-07-20T21:59:07.089792,13.17648471,.00020779,87.9152,359.1596,90.2247,269.9122,0,U,50470,999,22252,.12895328E-3,.63E-6,0
ONEWEB-0391,2021-132C,2026-07-20T22:01:32.863008,13.17647665,.00018065,87.9155,359.1691,68.3091,291.8233,0,U,50471,999,22252,-.16751446E-3,-.52E-6,0
ONEWEB-0392,2021-132D,2026-07-20T20:55:56.568000,13.17647356,.00016631,87.9161,359.1492,83.1861,276.9460,0,U,50472,999,22255,-.2692396E-5,.12E-6,0
ONEWEB-0393,2021-132E,2026-07-20T22:10:04.778688,13.17647507,.00017488,87.9153,359.1531,90.0770,270.0562,0,U,50473,999,22255,-.12817811E-4,.8E-7,0
ONEWEB-0394,2021-132F,2026-07-20T18:53:41.013600,13.18685644,.00017557,87.9200,328.7623,99.8968,260.2362,0,U,50474,999,22602,.42745574E-4,.3E-6,0
